CCSDS_OMM_VERS,COMMENT,CREATION_DATE,ORIGINATOR,OBJECT_NAME,OBJECT_ID,CENTER_NAME,REF_FRAME,TIME_SYSTEM,MEAN_ELEMENT_THEORY,EPOCH,MEAN_MOTION,ECCENTRICITY,INCLINATION,RA_OF_ASC_NODE,ARG_OF_PERICENTER,MEAN_ANOMALY,EPHEMERIS_TYPE,CLASSIFICATION_TYPE,NORAD_CAT_ID,ELEMENT_SET_NO,REV_AT_EPOCH,BSTAR,MEAN_MOTION_DOT,MEAN_MOTION_DDOT,SEMIMAJOR_AXIS,PERIOD,APOAPSIS,PERIAPSIS,OBJECT_TYPE,RCS_SIZE,COUNTRY_CODE,LAUNCH_DATE,SITE,DECAY_DATE,FILE,GP_ID,TLE_LINE0,TLE_LINE1,TLE_LINE2
2,GENERATED VIA SPACE-TRACK.ORG API,2005-07-17T08:58:11,18 SPCS,SKYNET 4D,1998-002A,EARTH,TEME,UTC,SGP4,2005-07-17T00:58:46.001280,1.002756,0.0003106,2.2841,52.8629,65.9366,156.5874,0,U,25134,999,2757,0.0,-2.26e-06,0,42163.689,1436.042,35798.65,35772.458,PAYLOAD,LARGE,UK,1998-01-10,AFETR,,160011,54164861,0 SKYNET 4D,1 25134U 98002A   05198.04081020 -.00000226  00000-0  00000+0 0  9992,2 25134 002.2841 052.8629 0003106 065.9366 156.5874 01.00275600 27579
2,GENERATED VIA SPACE-TRACK.ORG API,2005-07-18T00:42:45,18 SPCS,SKYNET 4D,1998-002A,EARTH,TEME,UTC,SGP4,2005-07-18T01:36:17.001215,1.00275308,0.0007005,2.2876,52.8728,100.5379,132.326,0,U,25134,999,2758,0.0,-2.29e-06,0,42163.771,1436.046,35815.172,35756.1,PAYLOAD,LARGE,UK,1998-01-10,AFETR,,160249,54173747,0 SKYNET 4D,1 25134U 98002A   05199.06686344 -.00000229  00000-0  00000+0 0  9998,2 25134 002.2876 052.8728 0007005 100.5379 132.3260 01.00275308 27586
2,GENERATED VIA SPACE-TRACK.ORG API,2005-07-19T00:41:21,18 SPCS,SKYNET 4D,1998-002A,EARTH,TEME,UTC,SGP4,2005-07-19T02:26:39.001056,1.00274985,0.0004283,2.2871,52.8177,83.1776,163.4016,0,U,25134,999,2759,0.0,-2.33e-06,0,42163.861,1436.051,35803.785,35767.668,PAYLOAD,LARGE,UK,1998-01-10,AFETR,,160739,54184811,0 SKYNET 4D,1 25134U 98002A   05200.10184029 -.00000233  00000-0  00000+0 0  9994,2 25134 002.2871 052.8177 0004283 083.1776 163.4016 01.00274985 27596
2,GENERATED VIA SPACE-TRACK.ORG API,2005-07-22T00:47:06,18 SPCS,SKYNET 4D,1998-002A,EARTH,TEME,UTC,SGP4,2005-07-21T22:30:02.501280,1.00273835,0.0006342,2.3031,53.0755,111.0355,78.9161,0,U,25134,999,2762,0.0,-2.46e-06,0,42164.184,1436.067,35812.789,35759.308,PAYLOAD,LARGE,UK,1998-01-10,AFETR,,161894,54216289,0 SKYNET 4D,1 25134U 98002A   05202.93752895 -.00000246  00000-0  00000+0 0  9993,2 25134 002.3031 053.0755 0006342 111.0355 078.9161 01.00273835 27620
2,GENERATED VIA SPACE-TRACK.ORG API,2005-07-23T02:04:40,18 SPCS,SKYNET 4D,1998-002A,EARTH,TEME,UTC,SGP4,2005-07-22T22:52:27.501311,1.00273191,0.0002292,2.3055,53.1229,77.6161,118.9432,0,U,25134,999,2763,0.0,-2.49e-06,0,42164.364,1436.076,35795.893,35776.565,PAYLOAD,LARGE,UK,1998-01-10,AFETR,,162270,54226938,0 SKYNET 4D,1 25134U 98002A   05203.95309608 -.00000249  00000-0  00000+0 0  9999,2 25134 002.3055 053.1229 0002292 077.6161 118.9432 01.00273191 27637
2,GENERATED VIA SPACE-TRACK.ORG API,2005-07-24T02:06:43,18 SPCS,SKYNET 4D,1998-002A,EARTH,TEME,UTC,SGP4,2005-07-23T23:11:35.001312,1.00272686,0.0002054,2.3071,53.1545,13.331,189.0023,0,U,25134,999,2764,0.0,-2.5e-06,0,42164.506,1436.083,35795.031,35777.71,PAYLOAD,LARGE,UK,1998-01-10,AFETR,,162666,54237267,0 SKYNET 4D,1 25134U 98002A   05204.96637733 -.00000250  00000-0  00000+0 0  9996,2 25134 002.3071 053.1545 0002054 013.3310 189.0023 01.00272686 27649
2,GENERATED VIA SPACE-TRACK.ORG API,2005-07-26T00:45:02,18 SPCS,SKYNET 4D,1998-002A,EARTH,TEME,UTC,SGP4,2005-07-25T23:41:00.001248,1.00271944,0.0002203,2.3098,53.1694,11.7152,199.9517,0,U,25134,999,2766,0.0,-2.49e-06,0,42164.714,1436.094,35795.868,35777.29,PAYLOAD,LARGE,UK,1998-01-10,AFETR,,163411,54257922,0 SKYNET 4D,1 25134U 98002A   05206.98680557 -.00000249  00000-0  00000+0 0  9990,2 25134 002.3098 053.1694 0002203 011.7152 199.9517 01.00271944 27661
2,GENERATED VIA SPACE-TRACK.ORG API,2005-07-29T08:47:38,18 SPCS,SKYNET 4D,1998-002A,EARTH,TEME,UTC,SGP4,2005-07-29T00:23:09.501215,1.00271238,0.0003833,2.3081,53.1306,336.8361,248.4217,0,U,25134,999,2769,0.0,-2.45e-06,0,42164.912,1436.104,35802.939,35770.615,PAYLOAD,LARGE,UK,1998-01-10,AFETR,,164750,54291261,0 SKYNET 4D,1 25134U 98002A   05210.01608219 -.00000245  00000-0  00000+0 0  9990,2 25134 002.3081 053.1306 0003833 336.8361 248.4217 01.00271238 27692
2,GENERATED VIA SPACE-TRACK.ORG API,2005-07-29T09:04:34,18 SPCS,SKYNET 4D,1998-002A,EARTH,TEME,UTC,SGP4,2005-07-29T00:23:09.501215,1.00271238,0.0003833,2.3081,53.1306,336.841,248.4167,0,U,25134,999,2769,0.0,-2.45e-06,0,42164.912,1436.104,35802.939,35770.615,PAYLOAD,LARGE,UK,1998-01-10,AFETR,,164778,54291773,0 SKYNET 4D,1 25134U 98002A   05210.01608219 -.00000245  00000-0  00000+0 0  9990,2 25134 002.3081 053.1306 0003833 336.8410 248.4167 01.00271238 27691
2,GENERATED VIA SPACE-TRACK.ORG API,2005-07-30T16:54:28,18 SPCS,SKYNET 4D,1998-002A,EARTH,TEME,UTC,SGP4,2005-07-30T00:00:07.000991,1.00271077,0.0003889,2.2993,53.0116,345.7841,234.7975,0,U,25134,999,2770,0.0,-2.44e-06,0,42164.957,1436.107,35803.22,35770.424,PAYLOAD,LARGE,UK,1998-01-10,AFETR,,165329,54310085,0 SKYNET 4D,1 25134U 98002A   05211.00008103 -.00000244  00000-0  00000+0 0  9995,2 25134 002.2993 053.0116 0003889 345.7841 234.7975 01.00271077 27706
2,GENERATED VIA SPACE-TRACK.ORG API,2005-08-01T10:10:29,18 SPCS,SKYNET 4D,1998-002A,EARTH,TEME,UTC,SGP4,2005-07-30T23:53:44.501279,1.00270775,0.0003859,2.3003,52.992,345.3067,234.679,0,U,25134,999,2771,0.0,-2.44e-06,0,42165.042,1436.111,35803.178,35770.635,PAYLOAD,LARGE,UK,1998-01-10,AFETR,,165991,54329417,0 SKYNET 4D,1 25134U 98002A   05211.99565395 -.00000244 +00000-0 +00000-0 0  9995,2 25134 002.3003 052.9920 0003859 345.3067 234.6790 01.00270775027712
2,GENERATED VIA SPACE-TRACK.ORG API,2005-08-01T00:43:39,18 SPCS,SKYNET 4D,1998-002A,EARTH,TEME,UTC,SGP4,2005-08-01T00:01:58.000799,1.00270669,0.0008793,2.2991,52.9252,324.0544,259.1052,0,U,25134,999,2772,0.0,-2.44e-06,0,42165.071,1436.112,35824.012,35749.861,PAYLOAD,LARGE,UK,1998-01-10,AFETR,,165844,54322197,0 SKYNET 4D,1 25134U 98002A   05213.00136575 -.00000244  00000-0  00000+0 0  9992,2 25134 002.2991 052.9252 0008793 324.0544 259.1052 01.00270669 27727
2,GENERATED VIA SPACE-TRACK.ORG API,2005-08-05T13:39:30,18 SPCS,SKYNET 4D,1998-002A,EARTH,TEME,UTC,SGP4,2005-08-04T00:23:26.001023,1.00269569,0.0004012,2.3161,52.8533,330.1841,261.3129,0,U,25134,999,2775,0.0,-2.44e-06,0,42165.38,1436.128,35804.161,35770.328,PAYLOAD,LARGE,UK,1998-01-10,AFETR,,167177,54357236,0 SKYNET 4D,1 25134U 98002A   05216.01627316 -.00000244  00000-0  00000+0 0  9994,2 25134 002.3161 052.8533 0004012 330.1841 261.3129 01.00269569 27756
2,GENERATED VIA SPACE-TRACK.ORG API,2005-08-06T08:13:43,18 SPCS,SKYNET 4D,1998-002A,EARTH,TEME,UTC,SGP4,2005-08-05T00:53:08.501280,1.00269644,0.0001782,2.3182,53.1699,125.0355,114.5115,0,U,25134,999,2776,0.0,-2.42e-06,0,42165.359,1436.127,35794.737,35779.71,PAYLOAD,LARGE,UK,1998-01-10,AFETR,,167582,54379797,0 SKYNET 4D,1 25134U 98002A   05217.03690395 -.00000242 +00000-0 +00000-0 0  9993,2 25134 002.3182 053.1699 0001782 125.0355 114.5115 01.00269644027767
2,GENERATED VIA SPACE-TRACK.ORG API,2005-08-08T10:10:47,18 SPCS,SKYNET 4D,1998-002A,EARTH,TEME,UTC,SGP4,2005-08-06T01:19:43.028831,1.00269326,0.0004455,2.3183,53.1071,319.759,287.5602,0,U,25134,999,2777,0.0,-2.4e-06,0,42165.448,1436.132,35806.097,35768.528,PAYLOAD,LARGE,UK,1998-01-10,AFETR,,168421,54403100,0 SKYNET 4D,1 25134U 98002A   05218.05535913 -.00000240 +00000-0 +00000-0 0  9998,2 25134 002.3183 053.1071 0004455 319.7590 287.5602 01.00269326027775
2,GENERATED VIA SPACE-TRACK.ORG API,2005-08-11T00:46:30,18 SPCS,SKYNET 4D,1998-002A,EARTH,TEME,UTC,SGP4,2005-08-10T23:34:10.001280,1.00268232,0.001419,2.3312,53.211,327.9871,257.7587,0,U,25134,999,2782,0.0,-2.3e-06,0,42165.754,1436.147,35847.453,35727.786,PAYLOAD,LARGE,UK,1998-01-10,AFETR,,169328,54427663,0 SKYNET 4D,1 25134U 98002A   05222.98206020 -.00000230  00000-0  00000+0 0  9997,2 25134 002.3312 053.2110 0014190 327.9871 257.7587 01.00268232 27826
2,GENERATED VIA SPACE-TRACK.ORG API,2005-08-12T00:46:03,18 SPCS,SKYNET 4D,1998-002A,EARTH,TEME,UTC,SGP4,2005-08-11T23:53:14.001215,1.00267926,0.0015253,2.3398,53.5139,327.6658,263.5411,0,U,25134,999,2783,0.0,-2.3e-06,0,42165.84,1436.152,35852.021,35723.39,PAYLOAD,LARGE,UK,1998-01-10,AFETR,,169704,54439013,0 SKYNET 4D,1 25134U 98002A   05223.99530094 -.00000230  00000-0  00000+0 0  9990,2 25134 002.3398 053.5139 0015253 327.6658 263.5411 01.00267926 27836
2,GENERATED VIA SPACE-TRACK.ORG API,2005-08-13T16:55:58,18 SPCS,SKYNET 4D,1998-002A,EARTH,TEME,UTC,SGP4,2005-08-12T23:47:22.500960,1.00267615,0.0017138,2.3421,53.5307,327.5539,263.1598,0,U,25134,999,2784,0.0,-2.31e-06,0,42165.927,1436.156,35860.056,35715.528,PAYLOAD,LARGE,UK,1998-01-10,AFETR,,170330,54459115,0 SKYNET 4D,1 25134U 98002A   05224.99123265 -.00000231  00000-0  00000+0 0  9990,2 25134 002.3421 053.5307 0017138 327.5539 263.1598 01.00267615 27849
2,GENERATED VIA SPACE-TRACK.ORG API,2005-08-14T08:57:05,18 SPCS,SKYNET 4D,1998-002A,EARTH,TEME,UTC,SGP4,2005-08-14T00:18:17.000927,1.00267286,0.0020669,2.3397,53.3932,328.0,271.6081,0,U,25134,999,2785,0.0,-2.33e-06,0,42166.02,1436.161,35875.038,35700.732,PAYLOAD,LARGE,UK,1998-01-10,AFETR,,170509,54462378,0 SKYNET 4D,1 25134U 98002A   05226.01269677 -.00000233  00000-0  00000+0 0  9995,2 25134 002.3397 053.3932 0020669 328.0000 271.6081 01.00267286 27851
2,GENERATED VIA SPACE-TRACK.ORG API,2005-08-15T00:42:00,18 SPCS,SKYNET 4D,1998-002A,EARTH,TEME,UTC,SGP4,2005-08-15T00:14:23.001216,1.00266901,0.0018946,2.3438,53.4922,330.0312,269.4474,0,U,25134,999,2786,0.0,-2.37e-06,0,42166.128,1436.166,35867.881,35708.105,PAYLOAD,LARGE,UK,1998-01-10,AFETR,,170738,54471152,0 SKYNET 4D,1 25134U 98002A   05227.00998844 -.00000237  00000-0  00000+0 0  9994,2 25134 002.3438 053.4922 0018946 330.0312 269.4474 01.00266901 27866
